[{"OBJECT_NAME":"STARLINK-6029","OBJECT_ID":"2023-078AN","EPOCH":"2026-03-09T23:24:27.768096","MEAN_MOTION":14.98329288,"ECCENTRICITY":0.00028402,"INCLINATION":70.0008,"RA_OF_ASC_NODE":343.7116,"ARG_OF_PERICENTER":268.0414,"MEAN_ANOMALY":92.042,"EPHEMERIS_TYPE":0,"CLASSIFICATION_TYPE":"U","NORAD_CAT_ID":56803,"ELEMENT_SET_NO":999,"REV_AT_EPOCH":15272,"BSTAR":-3.8886079e-5,"MEAN_MOTION_DOT":-5.57e-6,"MEAN_MOTION_DDOT":0},{"OBJECT_NAME":"SL-16 DEB","OBJECT_ID":"1992-093LA","EPOCH":"2026-02-20T04:21:44.148672","MEAN_MOTION":14.94798833,"ECCENTRICITY":0.00217312,"INCLINATION":71.2188,"RA_OF_ASC_NODE":0.2564,"ARG_OF_PERICENTER":24.1632,"MEAN_ANOMALY":336.0549,"EPHEMERIS_TYPE":0,"CLASSIFICATION_TYPE":"U","NORAD_CAT_ID":39848,"ELEMENT_SET_NO":999,"REV_AT_EPOCH":60757,"BSTAR":0.0046757079,"MEAN_MOTION_DOT":0.00051467,"MEAN_MOTION_DDOT":0}]
